NORAD_CAT_ID,OBJECT_NAME,OBJECT_TYPE,EPOCH,MEAN_MOTION,ECCENTRICITY,INCLINATION,RA_OF_ASC_NODE,ARG_OF_PERICENTER,MEAN_ANOMALY,BSTAR,MEAN_MOTION_DOT,MEAN_MOTION_DDOT,TLE_LINE0,TLE_LINE1,TLE_LINE2,SEMIMAJOR_AXIS,PERIOD,APOGEE,PERIGEE,DECAYED
53797.0,STARLINK-4723,PAYLOAD,2024-07-20 21:00:41,15.08844487,0.0001019,53.216,72.8839,59.1895,300.9198,6.8906e-05,8.09e-06,0.0,0 STARLINK-4723,1 53797U 22111AA  24202.87548166  .00000809  00000-0  68906-4 0  9993,2 53797  53.2160  72.8839 0001019  59.1895 300.9198 15.08844487102793,6917.867,95.437,540.437,539.027,0.0
53797.0,STARLINK-4723,PAYLOAD,2024-07-20 22:36:04,15.08858044,9.37e-05,53.2159,72.5875,82.5403,277.5696,3.8339e-06,-2.27e-06,0.0,0 STARLINK-4723,1 53797U 22111AA  24202.94171463 -.00000227  00000-0  38339-5 0  9996,2 53797  53.2159  72.5875 0000937  82.5403 277.5696 15.08858044103596,6917.825,95.436,540.338,539.042,0.0
53797.0,STARLINK-4723,PAYLOAD,2024-07-21 01:46:51,15.08842691,9.49e-05,53.2159,71.997,85.5923,274.5178,8.4616e-05,1.059e-05,0.0,0 STARLINK-4723,1 53797U 22111AA  24203.07420202  .00001059  00000-0  84616-4 0  9990,2 53797  53.2159  71.9970 0000949  85.5923 274.5178 15.08842691103614,6917.872,95.437,540.394,539.081,0.0
53797.0,STARLINK-4723,PAYLOAD,2024-07-21 20:51:29,15.08824024,9.79e-05,53.2166,68.4285,85.6837,274.4267,8.4706e-05,1.06e-05,0.0,0 STARLINK-4723,1 53797U 22111AA  24203.86909576  .00001060  00000-0  84706-4 0  9995,2 53797  53.2166  68.4285 0000979  85.6837 274.4267 15.08824024102943,6917.929,95.439,540.471,539.117,0.0
53797.0,STARLINK-4723,PAYLOAD,2024-07-21 22:26:52,15.08828041,9.93e-05,53.2166,68.1311,83.7363,276.3742,0.00011462,1.536e-05,0.0,0 STARLINK-4723,1 53797U 22111AA  24203.93533280  .00001536  00000-0  11462-3 0  9994,2 53797  53.2166  68.1311 0000993  83.7363 276.3742 15.08828041103740,6917.917,95.438,540.469,539.095,0.0
53797.0,STARLINK-4723,PAYLOAD,2024-07-22 22:17:39,15.08846693,0.0001136,53.2177,63.6695,77.8971,282.2148,-6.8411e-06,-3.97e-06,0.0,0 STARLINK-4723,1 53797U 22111AA  24204.92892635 -.00000397  00000-0 -68411-5 0  9990,2 53797  53.2177  63.6695 0001136  77.8971 282.2148 15.08846693103891,6917.86,95.437,540.511,538.939,0.0
53797.0,STARLINK-4723,PAYLOAD,2024-07-23 03:03:48,15.08846926,0.0001061,53.2177,62.7783,89.4019,270.7095,8.3407e-06,-1.55e-06,0.0,0 STARLINK-4723,1 53797U 22111AA  24205.12764452 -.00000155  00000-0  83407-5 0  9991,2 53797  53.2177  62.7783 0001061  89.4019 270.7095 15.08846926103137,6917.859,95.437,540.458,538.99,0.0
53797.0,STARLINK-4723,PAYLOAD,2024-07-23 23:43:49,15.08838934,0.0001055,53.2174,58.9137,85.5877,274.5235,-5.7742e-05,-1.207e-05,0.0,0 STARLINK-4723,1 53797U 22111AA  24205.98877104 -.00001207  00000-0 -57742-4 0  9996,2 53797  53.2174  58.9137 0001055  85.5877 274.5235 15.08838934103268,6917.884,95.438,540.478,539.019,0.0
53797.0,STARLINK-4723,PAYLOAD,2024-07-25 13:53:05,15.08836408,0.0001112,53.2178,51.7747,92.3033,267.8086,1.3722e-05,-6.9e-07,0.0,0 STARLINK-4723,1 53797U 22111AA  24207.57853569 -.00000069  00000-0  13722-4 0  9996,2 53797  53.2178  51.7747 0001112  92.3033 267.8086 15.08836408103504,6917.891,95.438,540.526,538.987,0.0
53797.0,STARLINK-4723,PAYLOAD,2024-07-25 21:50:00,15.08845866,0.000111,53.2175,50.2902,84.5852,275.5266,8.543e-05,1.072e-05,0.0,0 STARLINK-4723,1 53797U 22111AA  24207.90972701  .00001072  00000-0  85430-4 0  9992,2 53797  53.2175  50.2902 0001110  84.5852 275.5266 15.08845866103557,6917.862,95.437,540.495,538.96,0.0
53797.0,STARLINK-4723,PAYLOAD,2024-07-26 20:05:24,15.08844489,0.0001738,53.2162,46.1255,92.98,267.1391,2.6715e-05,1.37e-06,0.0,0 STARLINK-4723,1 53797U 22111AA  24208.83709075  .00000137  00000-0  26715-4 0  9999,2 53797  53.2162  46.1255 0001738  92.9800 267.1391 15.08844489103691,6917.867,95.437,540.934,538.529,0.0
53797.0,STARLINK-4723,PAYLOAD,2024-07-26 21:40:47,15.08844383,0.0001501,53.2168,45.8294,89.3985,270.7179,-7.3038e-06,-4.04e-06,0.0,0 STARLINK-4723,1 53797U 22111AA  24208.90333272 -.00000404  00000-0 -73038-5 0  9999,2 53797  53.2168  45.8294 0001501  89.3985 270.7179 15.08844383104494,6917.867,95.437,540.77,538.694,0.0
53797.0,STARLINK-4723,PAYLOAD,2024-07-27 05:37:44,15.08838488,0.0001443,53.2189,44.3403,90.2692,269.8466,-9.507e-05,-1.801e-05,0.0,0 STARLINK-4723,1 53797U 22111AA  24209.23453919 -.00001801  00000-0 -95070-4 0  9998,2 53797  53.2189  44.3403 0001443  90.2692 269.8466 15.08838488103759,6917.885,95.438,540.748,538.752,0.0
53797.0,STARLINK-4723,PAYLOAD,2024-07-27 16:45:23,15.0896621,0.0002163,53.2181,42.2594,71.3926,288.7301,-0.0016771,-0.00026973,0.0,0 STARLINK-4723,1 53797U 22111AA  24209.69818732 -.00026973  00000-0 -16771-2 0  9992,2 53797  53.2181  42.2594 0002163  71.3926 288.7301 15.08966210104618,6917.495,95.43,540.856,537.863,0.0
53797.0,STARLINK-4723,PAYLOAD,2024-07-28 05:28:30,15.08842248,0.0001372,53.2184,39.8806,83.8628,276.2521,-2.854e-05,-7.42e-06,0.0,0 STARLINK-4723,1 53797U 22111AA  24210.22813432 -.00000742  00000-0 -28540-4 0  9990,2 53797  53.2184  39.8806 0001372  83.8628 276.2521 15.08842248103908,6917.874,95.437,540.688,538.789,0.0
53797.0,STARLINK-4723,PAYLOAD,2024-07-28 21:22:22,15.0883503,0.000141,53.2194,36.9083,91.4796,268.6358,6.89e-05,8.09e-06,0.0,0 STARLINK-4723,1 53797U 22111AA  24210.89053683  .00000809  00000-0  68900-4 0  9993,2 53797  53.2194  36.9083 0001410  91.4796 268.6358 15.08835030104790,6917.896,95.438,540.736,538.785,0.0
53797.0,STARLINK-4723,PAYLOAD,2024-07-29 21:13:09,15.0883748,0.000135,53.2188,32.4477,93.9893,266.1253,3.4994e-05,2.69e-06,0.0,0 STARLINK-4723,1 53797U 22111AA  24211.88413855  .00000269  00000-0  34994-4 0  9990,2 53797  53.2188  32.4477 0001350  93.9893 266.1253 15.08837480104157,6917.888,95.438,540.687,538.819,0.0
53797.0,STARLINK-4723,PAYLOAD,2024-07-30 21:03:56,15.08844638,0.0001249,53.2185,27.9863,87.6759,272.4376,4.6299e-05,4.49e-06,0.0,0 STARLINK-4723,1 53797U 22111AA  24212.87773362  .00000449  00000-0  46299-4 0  9993,2 53797  53.2185  27.9863 0001249  87.6759 272.4376 15.08844638105093,6917.866,95.437,540.595,538.867,0.0
53797.0,STARLINK-4723,PAYLOAD,2024-07-31 05:00:52,15.08837336,0.0001361,53.2186,26.499,93.6378,266.477,-1.848e-05,-5.82e-06,0.0,0 STARLINK-4723,1 53797U 22111AA  24213.20894010 -.00000582  00000-0 -18480-4 0  9996,2 53797  53.2186  26.4990 0001361  93.6378 266.4770 15.08837336104354,6917.889,95.438,540.695,538.812,0.0
53797.0,STARLINK-4723,PAYLOAD,2024-07-31 20:54:43,15.08840002,0.0001234,53.2183,23.5229,115.9476,244.1644,3.1106e-05,2.07e-06,0.0,0 STARLINK-4723,1 53797U 22111AA  24213.87133590  .00000207  00000-0  31106-4 0  9990,2 53797  53.2183  23.5229 0001234 115.9476 244.1644 15.08840002105246,6917.88,95.438,540.599,538.892,0.0
53797.0,STARLINK-4723,PAYLOAD,2024-08-01 20:45:30,15.08831443,0.00015,53.219,19.065,101.3536,258.7625,6.7485e-05,7.86e-06,0.0,0 STARLINK-4723,1 53797U 22111AA  24214.86493932  .00000786  00000-0  67485-4 0  9990,2 53797  53.2190  19.0650 0001500 101.3536 258.7625 15.08831443105399,6917.907,95.438,540.809,538.734,0.0
53797.0,STARLINK-4723,PAYLOAD,2024-08-02 14:14:45,15.08835566,0.0001341,53.2185,15.7949,97.5891,262.5253,3.3437e-05,2.44e-06,0.0,0 STARLINK-4723,1 53797U 22111AA  24215.59358095  .00000244  00000-0  33437-4 0  9990,2 53797  53.2185  15.7949 0001341  97.5891 262.5253 15.08835566105503,6917.894,95.438,540.687,538.831,0.0
53797.0,STARLINK-4723,PAYLOAD,2024-08-02 17:25:31,15.08839546,0.0001358,53.2187,15.1996,99.5504,260.5642,6.0989e-05,6.83e-06,0.0,0 STARLINK-4723,1 53797U 22111AA  24215.72605764  .00000683  00000-0  60989-4 0  9992,2 53797  53.2187  15.1996 0001358  99.5504 260.5642 15.08839546105526,6917.882,95.438,540.686,538.807,0.0
53797.0,STARLINK-4723,PAYLOAD,2024-08-03 14:05:32,15.08833782,0.0001416,53.2187,11.3347,99.7256,260.3896,5.3226e-05,5.59e-06,0.0,0 STARLINK-4723,1 53797U 22111AA  24216.58718095  .00000559  00000-0  53226-4 0  9997,2 53797  53.2187  11.3347 0001416  99.7256 260.3896 15.08833782105654,6917.899,95.438,540.744,538.785,0.0
53797.0,STARLINK-4723,PAYLOAD,2024-08-03 20:27:04,15.0883735,0.0001299,53.2186,10.1469,95.4313,264.6827,4.6614e-05,4.54e-06,0.0,0 STARLINK-4723,1 53797U 22111AA  24216.85214017  .00000454  00000-0  46614-4 0  9999,2 53797  53.2186  10.1469 0001299  95.4313 264.6827 15.08837350104904,6917.888,95.438,540.652,538.855,0.0
53797.0,STARLINK-4723,PAYLOAD,2024-08-04 13:56:19,15.08837024,0.0001381,53.2193,6.8764,98.2183,261.8966,-3.5241e-06,-3.44e-06,0.0,0 STARLINK-4723,1 53797U 22111AA  24217.58078445 -.00000344  00000-0 -35241-5 0  9998,2 53797  53.2193   6.8764 0001381  98.2183 261.8966 15.08837024105801,6917.889,95.438,540.71,538.799,0.0
53797.0,STARLINK-4723,PAYLOAD,2024-08-04 17:07:05,15.08842305,0.000143,53.2186,6.2832,100.1155,259.9998,5.0977e-05,5.23e-06,0.0,0 STARLINK-4723,1 53797U 22111AA  24217.71325913  .00000523  00000-0  50977-4 0  9997,2 53797  53.2186   6.2832 0001430 100.1155 259.9998 15.08842305105823,6917.873,95.437,540.728,538.749,0.0
53797.0,STARLINK-4723,PAYLOAD,2024-08-05 02:39:24,15.08844796,0.0001397,53.2178,4.4993,100.4419,259.673,6.0544e-05,6.76e-06,0.0,0 STARLINK-4723,1 53797U 22111AA  24218.11069667  .00000676  00000-0  60544-4 0  9993,2 53797  53.2178   4.4993 0001397 100.4419 259.6730 15.08844796105096,6917.866,95.437,540.697,538.764,0.0
53797.0,STARLINK-4723,PAYLOAD,2024-08-05 16:57:53,15.08829659,0.0001456,53.2202,1.8227,100.1426,259.973,-3.4335e-05,-8.34e-06,0.0,0 STARLINK-4723,1 53797U 22111AA  24218.70687080 -.00000834  00000-0 -34335-4 0  9990,2 53797  53.2202   1.8227 0001456 100.1426 259.9730 15.08829659105180,6917.912,95.438,540.784,538.77,0.0
53797.0,STARLINK-4723,PAYLOAD,2024-08-06 13:37:53,15.08837389,0.0001327,53.2197,357.9561,96.948,263.1664,4.4359e-05,4.18e-06,0.0,0 STARLINK-4723,1 53797U 22111AA  24219.56798582  .00000418  00000-0  44359-4 0  9998,2 53797  53.2197 357.9561 0001327  96.9480 263.1664 15.08837389106103,6917.888,95.438,540.671,538.835,0.0
